{
  "type": "FeatureCollection",
  "features": [
    {
      "type": "Feature",
      "properties": {
        "norad_id": 41773,
        "name": "SKYSAT-C2",
        "group": "resource",
        "lat": 76.60023142723816,
        "lon": -15.01524303216614,
        "alt_km": 445.2873369636727,
        "timestamp": "2025-12-17T21:39:45.366078+00:00",
        "meta_object_name": "SKYSAT-C2",
        "meta_object_id": "2016-058D",
        "meta_epoch": "2025-12-17T15:04:25.946976",
        "meta_mean_motion": 15.37380675,
        "meta_eccentricity": 0.00037117,
        "meta_inclination": 97.0356,
        "meta_ra_of_asc_node": 15.9481,
        "meta_arg_of_pericenter": 21.9124,
        "meta_mean_anomaly": 338.228,
        "meta_ephemeris_type": 0,
        "meta_classification_type": "U",
        "meta_norad_cat_id": 41773,
        "meta_element_set_no": 999,
        "meta_rev_at_epoch": 51711,
        "meta_bstar": 0.0002641066,
        "meta_mean_motion_dot": 9.604e-05,
        "meta_mean_motion_ddot": 0,
        "tle_line1": "1 41773U 16058D   25351.62807809  .00009604  00000+0  26411-3 0  9993",
        "tle_line2": "2 41773  97.0356  15.9481 0003711  21.9124 338.2280 15.37380675517119"
      },
      "geometry": {
        "type": "Point",
        "coordinates": [
          -15.01524303216614,
          76.60023142723816
        ]
      }
    },
    {
      "type": "Feature",
      "properties": {
        "norad_id": 41774,
        "name": "SKYSAT-C3",
        "group": "resource",
        "lat": 39.53218691575479,
        "lon": 19.648436981137934,
        "alt_km": 429.19613261322775,
        "timestamp": "2025-12-17T21:39:45.366087+00:00",
        "meta_object_name": "SKYSAT-C3",
        "meta_object_id": "2016-058E",
        "meta_epoch": "2025-12-17T15:16:15.950208",
        "meta_mean_motion": 15.44569535,
        "meta_eccentricity": 0.00018374,
        "meta_inclination": 96.9293,
        "meta_ra_of_asc_node": 25.1549,
        "meta_arg_of_pericenter": 107.9075,
        "meta_mean_anomaly": 252.2375,
        "meta_ephemeris_type": 0,
        "meta_classification_type": "U",
        "meta_norad_cat_id": 41774,
        "meta_element_set_no": 999,
        "meta_rev_at_epoch": 51801,
        "meta_bstar": 0.00034182362,
        "meta_mean_motion_dot": 0.00015812,
        "meta_mean_motion_ddot": 0,
        "tle_line1": "1 41774U 16058E   25351.63629572  .00015812  00000+0  34182-3 0  9996",
        "tle_line2": "2 41774  96.9293  25.1549 0001837 107.9075 252.2375 15.44569535518015"
      },
      "geometry": {
        "type": "Point",
        "coordinates": [
          19.648436981137934,
          39.53218691575479
        ]
      }
    },
    {
      "type": "Feature",
      "properties": {
        "norad_id": 41785,
        "name": "ALSAT 1B",
        "group": "resource",
        "lat": -5.302673207741621,
        "lon": 4.197104288459821,
        "alt_km": 658.606894354306,
        "timestamp": "2025-12-17T21:39:45.366096+00:00",
        "meta_object_name": "ALSAT 1B",
        "meta_object_id": "2016-059C",
        "meta_epoch": "2025-12-17T15:09:41.460768",
        "meta_mean_motion": 14.72081244,
        "meta_eccentricity": 0.00107659,
        "meta_inclination": 97.7814,
        "meta_ra_of_asc_node": 3.2107,
        "meta_arg_of_pericenter": 89.4641,
        "meta_mean_anomaly": 270.78,
        "meta_ephemeris_type": 0,
        "meta_classification_type": "U",
        "meta_norad_cat_id": 41785,
        "meta_element_set_no": 999,
        "meta_rev_at_epoch": 49386,
        "meta_bstar": 7.8653682e-05,
        "meta_mean_motion_dot": 4.48e-06,
        "meta_mean_motion_ddot": 0,
        "tle_line1": "1 41785U 16059C   25351.63172987  .00000448  00000+0  78654-4 0  9994",
        "tle_line2": "2 41785  97.7814   3.2107 0010765  89.4641 270.7800 14.72081244493864"
      },
      "geometry": {
        "type": "Point",
        "coordinates": [
          4.197104288459821,
          -5.302673207741621
        ]
      }
    },
    {
      "type": "Feature",
      "properties": {
        "norad_id": 41787,
        "name": "PATHFINDER 1",
        "group": "resource",
        "lat": -15.026183161933606,
        "lon": -3.4509287363706767,
        "alt_km": 670.8072072451741,
        "timestamp": "2025-12-17T21:39:45.366105+00:00",
        "meta_object_name": "PATHFINDER 1",
        "meta_object_id": "2016-059E",
        "meta_epoch": "2025-12-17T13:32:54.264480",
        "meta_mean_motion": 14.67329644,
        "meta_eccentricity": 0.00299422,
        "meta_inclination": 97.8136,
        "meta_ra_of_asc_node": 354.1142,
        "meta_arg_of_pericenter": 66.5561,
        "meta_mean_anomaly": 293.8787,
        "meta_ephemeris_type": 0,
        "meta_classification_type": "U",
        "meta_norad_cat_id": 41787,
        "meta_element_set_no": 999,
        "meta_rev_at_epoch": 49307,
        "meta_bstar": 0.00012522599,
        "meta_mean_motion_dot": 6.65e-06,
        "meta_mean_motion_ddot": 0,
        "tle_line1": "1 41787U 16059E   25351.56451695  .00000665  00000+0  12523-3 0  9997",
        "tle_line2": "2 41787  97.8136 354.1142 0029942  66.5561 293.8787 14.67329644493071"
      },
      "geometry": {
        "type": "Point",
        "coordinates": [
          -3.4509287363706767,
          -15.026183161933606
        ]
      }
    },
    {
      "type": "Feature",
      "properties": {
        "norad_id": 41790,
        "name": "SCATSAT 1",
        "group": "resource",
        "lat": -14.306873334187529,
        "lon": -133.45608415406963,
        "alt_km": 632.0301104583878,
        "timestamp": "2025-12-17T21:39:45.366114+00:00",
        "meta_object_name": "SCATSAT 1",
        "meta_object_id": "2016-059H",
        "meta_epoch": "2025-12-17T14:17:49.902144",
        "meta_mean_motion": 14.78952768,
        "meta_eccentricity": 0.00564065,
        "meta_inclination": 98.1459,
        "meta_ra_of_asc_node": 48.3266,
        "meta_arg_of_pericenter": 112.6581,
        "meta_mean_anomaly": 248.0608,
        "meta_ephemeris_type": 0,
        "meta_classification_type": "U",
        "meta_norad_cat_id": 41790,
        "meta_element_set_no": 999,
        "meta_rev_at_epoch": 7474,
        "meta_bstar": 0.00017510337,
        "meta_mean_motion_dot": 1.27e-05,
        "meta_mean_motion_ddot": 0,
        "tle_line1": "1 41790U 16059H   25351.59571646  .00001270  00000+0  17510-3 0  9997",
        "tle_line2": "2 41790  98.1459  48.3266 0056406 112.6581 248.0608 14.78952768 74740"
      },
      "geometry": {
        "type": "Point",
        "coordinates": [
          -133.45608415406963,
          -14.306873334187529
        ]
      }
    },
    {
      "type": "Feature",
      "properties": {
        "norad_id": 41875,
        "name": "GOKTURK 1A",
        "group": "resource",
        "lat": -21.610418051022002,
        "lon": -112.54961231689698,
        "alt_km": 689.6757140741993,
        "timestamp": "2025-12-17T21:39:45.366122+00:00",
        "meta_object_name": "GOKTURK 1A",
        "meta_object_id": "2016-073A",
        "meta_epoch": "2025-12-17T15:11:43.771200",
        "meta_mean_motion": 14.62785168,
        "meta_eccentricity": 0.00012501,
        "meta_inclination": 98.1431,
        "meta_ra_of_asc_node": 243.933,
        "meta_arg_of_pericenter": 79.3629,
        "meta_mean_anomaly": 280.7713,
        "meta_ephemeris_type": 0,
        "meta_classification_type": "U",
        "meta_norad_cat_id": 41875,
        "meta_element_set_no": 999,
        "meta_rev_at_epoch": 48228,
        "meta_bstar": 8.3155942e-05,
        "meta_mean_motion_dot": 3.77e-06,
        "meta_mean_motion_ddot": 0,
        "tle_line1": "1 41875U 16073A   25351.63314550  .00000377  00000+0  83156-4 0  9998",
        "tle_line2": "2 41875  98.1431 243.9330 0001250  79.3629 280.7713 14.62785168482281"
      },
      "geometry": {
        "type": "Point",
        "coordinates": [
          -112.54961231689698,
          -21.610418051022002
        ]
      }
    },
    {
      "type": "Feature",
      "properties": {
        "norad_id": 41877,
        "name": "RESOURCESAT-2A",
        "group": "resource",
        "lat": -16.836301850175328,
        "lon": 64.40776179115159,
        "alt_km": 825.1243648602604,
        "timestamp": "2025-12-17T21:39:45.366131+00:00",
        "meta_object_name": "RESOURCESAT-2A",
        "meta_object_id": "2016-074A",
        "meta_epoch": "2025-12-17T14:59:08.992032",
        "meta_mean_motion": 14.21601326,
        "meta_eccentricity": 0.00012793,
        "meta_inclination": 98.7756,
        "meta_ra_of_asc_node": 61.452,
        "meta_arg_of_pericenter": 231.073,
        "meta_mean_anomaly": 129.0333,
        "meta_ephemeris_type": 0,
        "meta_classification_type": "U",
        "meta_norad_cat_id": 41877,
        "meta_element_set_no": 999,
        "meta_rev_at_epoch": 46850,
        "meta_bstar": 5.5177197e-05,
        "meta_mean_motion_dot": 7.7e-07,
        "meta_mean_motion_ddot": 0,
        "tle_line1": "1 41877U 16074A   25351.62440963  .00000077  00000+0  55177-4 0  9997",
        "tle_line2": "2 41877  98.7756  61.4520 0001279 231.0730 129.0333 14.21601326468504"
      },
      "geometry": {
        "type": "Point",
        "coordinates": [
          64.40776179115159,
          -16.836301850175328
        ]
      }
    }
  ]
}